STARLINK-36566          
1 67551U 26014V   26030.91667824 -.01473433  64049-3 -37249-2 0  9991
2 67551  97.2786 273.8483 0001273  88.9369  78.5151 15.95622630  2611
STARLINK-36567          
1 67552U 26014W   26030.91667824 -.01476359  64395-3 -36999-2 0  9997
2 67552  97.2785 273.8497 0001363  95.0321  75.6032 15.95785264  2612
STARLINK-36569          
1 67553U 26014X   26030.91667824 -.01470805  64093-3 -36433-2 0  9996
2 67553  97.2783 273.8516 0001287  92.0791  82.6573 15.96001668  2614
STARLINK-36395          
1 67554U 26014Y   26030.91667824 -.01441219  62090-3 -34638-2 0  9994
2 67554  97.2781 273.8566 0001404  97.7687  87.8859 15.96556946  2613
STARLINK-36559          
1 67555U 26014Z   26030.91667824 -.01460756  63549-3 -35421-2 0  9993
2 67555  97.2784 273.8551 0001440  84.6245  97.6877 15.96395065  2618
MR-1                    
1 67556U 26015A   26030.76556311  .00000088  00000+0  11491-3 0  9992
2 67556  88.9994 282.5147 0004927 106.6163 253.5531 13.52685110  1133
MR-2                    
1 67557U 26015B   26030.69173903  .00000048  00000+0  54342-4 0  9996
2 67557  88.9993 282.5225 0005005 105.8404 254.3300 13.52660418  1123
ELECTRON R/B            
1 67558U 26015C   26030.96353498  .01045392 -53002-6  10993-2 0  9998
2 67558  89.0049 282.2630 0585616 239.4231 114.7992 14.95215354  1273
ELECTRON KICK STAGE R/B 
1 67559U 26015D   26030.74405331  .00060832  79173-7  10357-2 0  9995
2 67559  89.0538 282.3705 0536909 306.7541  48.5502 14.66218874  1228
STARLINK-36426          
1 67560U 26014AA  26030.91667824 -.01455755  62985-3 -35759-2 0  9999
2 67560  97.2779 273.8530 0001428  98.1946  79.6779 15.96154866  1464
CZ-2C DEB               
1 67586U 26009C   26030.98649546  .00052355  00000+0  26778-2 0  9992
2 67586  97.2292 104.9380 0113137 167.3737 193.0371 15.10970955  2389
CZ-2C DEB               
1 67587U 26009D   26030.90077586  .00038129  00000+0  18794-2 0  9996
2 67587  97.6749 105.6892 0109425 173.0124 187.2664 15.12639357  2375
NAVSTAR 85 (USA 581)    
1 67588U 26017A   26028.76206649  .00000346  00000+0  32093-3 0  9990
2 67588  55.0007  99.1396 5940837 270.1415  26.1406  4.03376750    44
NEONSAT-1A              
1 67614U 26019A   26030.61619475  .00001715  00000+0  11691-3 0  9996
2 67614  97.4094 155.5697 0012271 308.6126  51.4003 15.07484359    83
ELECTRON R/B            
1 67615U 26019B   26030.59647000  .00246482  22804-5  24259-3 0  9997
2 67615  97.4431 155.6469 0275174 223.6059 134.3162 15.66134198    86
ELECTRON KICK STAGE R/B 
1 67616U 26019C   26030.60061503  .00036737  25611-5  22195-3 0  9994
2 67616  97.4077 155.5815 0209428 260.1906  97.5645 15.53271469    88
